[{"OBJECT_NAME":"STARLINK-6277","OBJECT_ID":"2023-061AB","EPOCH":"2026-03-09T22:00:01.999584","MEAN_MOTION":15.06487571,"ECCENTRICITY":0.00020582,"INCLINATION":42.9995,"RA_OF_ASC_NODE":183.5468,"ARG_OF_PERICENTER":278.8022,"MEAN_ANOMALY":136.7338,"EPHEMERIS_TYPE":0,"CLASSIFICATION_TYPE":"U","NORAD_CAT_ID":56399,"ELEMENT_SET_NO":999,"REV_AT_EPOCH":573,"BSTAR":0.0017676761,"MEAN_MOTION_DOT":0.00026434,"MEAN_MOTION_DDOT":0},{"OBJECT_NAME":"CZ-4B DEB","OBJECT_ID":"2004-035J","EPOCH":"2026-03-07T20:16:16.859712","MEAN_MOTION":15.09572175,"ECCENTRICITY":0.00105031,"INCLINATION":97.5432,"RA_OF_ASC_NODE":82.067,"ARG_OF_PERICENTER":356.2804,"MEAN_ANOMALY":3.8346,"EPHEMERIS_TYPE":0,"CLASSIFICATION_TYPE":"U","NORAD_CAT_ID":29042,"ELEMENT_SET_NO":999,"REV_AT_EPOCH":69625,"BSTAR":0.00031812935,"MEAN_MOTION_DOT":5.052e-5,"MEAN_MOTION_DDOT":0}]
